STARLINK-32195          
1 60440U 24144R   26068.70428610 -.00000582  00000+0 -75280-5 0  9992
2 60440  53.1590 216.9022 0000925  99.2130 260.8975 15.30191375 89314
2025-313BE              
1 67482U 25313BE  26068.69721505  .00077178  00000+0  26504-2 0  9996
2 67482  97.3989 145.3568 0007208 335.3714  24.7181 15.29801687  7972
